*******************************************************************************
Ephemeris / WWW_USER Mon Jul 15 19:31:11 2024 Pasadena, USA      / Horizons    
*******************************************************************************
Target body name: Hale-Bopp (C/1995 O1)           {source: JPL#226}
Center body name: Earth (399)                     {source: DE441}
Center-site name: Gemini South Obs., Cerro Pachon
*******************************************************************************
Start time      : A.D. 2018-Nov-07 23:19:00.0000 UT      
Stop  time      : A.D. 2018-Nov-08 09:33:00.0000 UT      
Step-size       : 1 minutes
*******************************************************************************
Target pole/equ : undefined
Target radii    : 30. km                                                       
Center geodetic : 289.2634, -30.2406227, 2.71233  {E-lon(deg),Lat(deg),Alt(km)}
Center cylindric: 289.2634,5517.21435,-3194.81213 {E-lon(deg),Dxy(km),Dz(km)}
Center pole/equ : ITRF93                          {East-longitude positive}
Center radii    : 6378.137, 6378.137, 6356.752 km {Equator_a, b, pole_c}       
Target primary  : Sun
Vis. interferer : MOON (R_eq= 1737.400) km        {source: DE441}
Rel. light bend : Sun                             {source: DE441}
Rel. lght bnd GM: 1.3271E+11 km^3/s^2                                          
Small-body perts: Yes                             {source: SB441-N16}
Atmos refraction: NO (AIRLESS)
RA format       : HMS
Time format     : CAL 
Calendar mode   : Mixed Julian/Gregorian
RTS-only print  : NO       
EOP file        : eop.240715.p241008                                           
EOP coverage    : DATA-BASED 1962-JAN-20 TO 2024-JUL-15. PREDICTS-> 2024-OCT-07
Units conversion: 1 au= 149597870.700 km, c= 299792.458 km/s, 1 day= 86400.0 s 
Table cut-offs 1: Elevation (-90.0deg=NO ),Airmass (>38.000=NO), Daylight (YES)
Table cut-offs 2: Solar elongation (  0.0,180.0=NO ),Local Hour Angle( 0.0=NO )
Table cut-offs 3: RA/DEC angular rate (     0.0=NO )                           
*******************************************************************************
Initial IAU76/J2000 heliocentric ecliptic osculating elements (au, days, deg.):
  EPOCH=  2459837.5 ! 2022-Sep-15.0000000 (TDB)    RMSW= n.a.                  
   EC= .9949810027633206   QR= .890537663547794    TP= 2450537.1349071441      
   OM= 282.7334213961641   W= 130.4146670659176    IN= 89.28759424740302       
  Equivalent ICRF heliocentric cartesian coordinates (au, au/d):
   X= 3.907631452214869E+00  Y=-1.373895334060347E+00  Z=-4.624358508575312E+01
  VX= 3.778244409519935E-04 VY=-5.803173067116371E-04 VZ=-3.255716412104052E-03
Comet physical (GM= km^3/s^2; RAD= km):                                        
   GM= n.a.                RAD= 30.                                            
   M1=  4.8      M2=  n.a.     k1=  4.     k2= n.a.     PHCOF= n.a.            
*******************************************************************************
 Date__(UT)__HR:MN     R.A._________(ICRF)_________DEC
******************************************************
$$SOE
 2018-Nov-08 01:23     22 23 14.832488 -86 00 37.66743
 2018-Nov-08 01:24     22 23 14.814345 -86 00 37.61264
 2018-Nov-08 01:25     22 23 14.796204 -86 00 37.55784
 2018-Nov-08 01:26     22 23 14.778066 -86 00 37.50304
 2018-Nov-08 01:27     22 23 14.759929 -86 00 37.44824
 2018-Nov-08 01:28     22 23 14.741794 -86 00 37.39343
 2018-Nov-08 01:29     22 23 14.723662 -86 00 37.33862
 2018-Nov-08 01:30     22 23 14.705531 -86 00 37.28380
 2018-Nov-08 01:31     22 23 14.687402 -86 00 37.22898
 2018-Nov-08 01:32     22 23 14.669276 -86 00 37.17416
 2018-Nov-08 01:33     22 23 14.651152 -86 00 37.11934
 2018-Nov-08 01:34     22 23 14.633029 -86 00 37.06451
 2018-Nov-08 01:35     22 23 14.614909 -86 00 37.00968
 2018-Nov-08 01:36     22 23 14.596791 -86 00 36.95484
 2018-Nov-08 01:37     22 23 14.578675 -86 00 36.90001
 2018-Nov-08 01:38     22 23 14.560561 -86 00 36.84516
 2018-Nov-08 01:39     22 23 14.542449 -86 00 36.79032
 2018-Nov-08 01:40     22 23 14.524340 -86 00 36.73547
 2018-Nov-08 01:41     22 23 14.506233 -86 00 36.68062
 2018-Nov-08 01:42     22 23 14.488128 -86 00 36.62576
 2018-Nov-08 01:43     22 23 14.470025 -86 00 36.57090
 2018-Nov-08 01:44     22 23 14.451924 -86 00 36.51604
 2018-Nov-08 01:45     22 23 14.433825 -86 00 36.46117
 2018-Nov-08 01:46     22 23 14.415729 -86 00 36.40630
 2018-Nov-08 01:47     22 23 14.397635 -86 00 36.35143
 2018-Nov-08 01:48     22 23 14.379544 -86 00 36.29656
 2018-Nov-08 01:49     22 23 14.361454 -86 00 36.24168
 2018-Nov-08 01:50     22 23 14.343367 -86 00 36.18679
 2018-Nov-08 01:51     22 23 14.325282 -86 00 36.13191
 2018-Nov-08 01:52     22 23 14.307200 -86 00 36.07702
 2018-Nov-08 01:53     22 23 14.289120 -86 00 36.02212
 2018-Nov-08 01:54     22 23 14.271042 -86 00 35.96723
 2018-Nov-08 01:55     22 23 14.252967 -86 00 35.91233
 2018-Nov-08 01:56     22 23 14.234894 -86 00 35.85743
 2018-Nov-08 01:57     22 23 14.216823 -86 00 35.80252
 2018-Nov-08 01:58     22 23 14.198755 -86 00 35.74761
 2018-Nov-08 01:59     22 23 14.180689 -86 00 35.69270
 2018-Nov-08 02:00     22 23 14.162625 -86 00 35.63778
 2018-Nov-08 02:01     22 23 14.144564 -86 00 35.58286
 2018-Nov-08 02:02     22 23 14.126506 -86 00 35.52794
 2018-Nov-08 02:03     22 23 14.108450 -86 00 35.47301
 2018-Nov-08 02:04     22 23 14.090396 -86 00 35.41809
 2018-Nov-08 02:05     22 23 14.072345 -86 00 35.36315
 2018-Nov-08 02:06     22 23 14.054297 -86 00 35.30822
 2018-Nov-08 02:07     22 23 14.036251 -86 00 35.25328
 2018-Nov-08 02:08     22 23 14.018207 -86 00 35.19834
 2018-Nov-08 02:09     22 23 14.000166 -86 00 35.14339
 2018-Nov-08 02:10     22 23 13.982128 -86 00 35.08844
 2018-Nov-08 02:11     22 23 13.964092 -86 00 35.03349
 2018-Nov-08 02:12     22 23 13.946058 -86 00 34.97854
 2018-Nov-08 02:13     22 23 13.928028 -86 00 34.92358
 2018-Nov-08 02:14     22 23 13.910000 -86 00 34.86862
 2018-Nov-08 02:15     22 23 13.891974 -86 00 34.81365
 2018-Nov-08 02:16     22 23 13.873951 -86 00 34.75869
 2018-Nov-08 02:17     22 23 13.855931 -86 00 34.70372
 2018-Nov-08 02:18     22 23 13.837913 -86 00 34.64874
 2018-Nov-08 02:19     22 23 13.819898 -86 00 34.59377
 2018-Nov-08 02:20     22 23 13.801886 -86 00 34.53879
 2018-Nov-08 02:21     22 23 13.783877 -86 00 34.48380
 2018-Nov-08 02:22     22 23 13.765870 -86 00 34.42882
 2018-Nov-08 02:23     22 23 13.747865 -86 00 34.37383
 2018-Nov-08 02:24     22 23 13.729864 -86 00 34.31883
 2018-Nov-08 02:25     22 23 13.711865 -86 00 34.26384
 2018-Nov-08 02:26     22 23 13.693869 -86 00 34.20884
 2018-Nov-08 02:27     22 23 13.675876 -86 00 34.15384
 2018-Nov-08 02:28     22 23 13.657886 -86 00 34.09883
 2018-Nov-08 02:29     22 23 13.639898 -86 00 34.04383
 2018-Nov-08 02:30     22 23 13.621913 -86 00 33.98882
 2018-Nov-08 02:31     22 23 13.603931 -86 00 33.93380
 2018-Nov-08 02:32     22 23 13.585952 -86 00 33.87878
 2018-Nov-08 02:33     22 23 13.567975 -86 00 33.82376
 2018-Nov-08 02:34     22 23 13.550001 -86 00 33.76874
 2018-Nov-08 02:35     22 23 13.532031 -86 00 33.71372
 2018-Nov-08 02:36     22 23 13.514063 -86 00 33.65869
 2018-Nov-08 02:37     22 23 13.496098 -86 00 33.60366
 2018-Nov-08 02:38     22 23 13.478135 -86 00 33.54862
 2018-Nov-08 02:39     22 23 13.460176 -86 00 33.49358
 2018-Nov-08 02:40     22 23 13.442220 -86 00 33.43854
 2018-Nov-08 02:41     22 23 13.424266 -86 00 33.38350
 2018-Nov-08 02:42     22 23 13.406316 -86 00 33.32845
 2018-Nov-08 02:43     22 23 13.388368 -86 00 33.27340
 2018-Nov-08 02:44     22 23 13.370423 -86 00 33.21835
 2018-Nov-08 02:45     22 23 13.352482 -86 00 33.16330
 2018-Nov-08 02:46     22 23 13.334543 -86 00 33.10824
 2018-Nov-08 02:47     22 23 13.316607 -86 00 33.05318
 2018-Nov-08 02:48     22 23 13.298674 -86 00 32.99811
 2018-Nov-08 02:49     22 23 13.280745 -86 00 32.94305
 2018-Nov-08 02:50     22 23 13.262818 -86 00 32.88798
 2018-Nov-08 02:51     22 23 13.244894 -86 00 32.83291
 2018-Nov-08 02:52     22 23 13.226973 -86 00 32.77783
 2018-Nov-08 02:53     22 23 13.209056 -86 00 32.72275
 2018-Nov-08 02:54     22 23 13.191141 -86 00 32.66767
 2018-Nov-08 02:55     22 23 13.173229 -86 00 32.61259
 2018-Nov-08 02:56     22 23 13.155321 -86 00 32.55750
 2018-Nov-08 02:57     22 23 13.137416 -86 00 32.50241
 2018-Nov-08 02:58     22 23 13.119513 -86 00 32.44732
 2018-Nov-08 02:59     22 23 13.101614 -86 00 32.39223
 2018-Nov-08 03:00     22 23 13.083718 -86 00 32.33713
 2018-Nov-08 03:01     22 23 13.065825 -86 00 32.28203
 2018-Nov-08 03:02     22 23 13.047935 -86 00 32.22693
 2018-Nov-08 03:03     22 23 13.030048 -86 00 32.17182
 2018-Nov-08 03:04     22 23 13.012165 -86 00 32.11672
 2018-Nov-08 03:05     22 23 12.994285 -86 00 32.06160
 2018-Nov-08 03:06     22 23 12.976407 -86 00 32.00649
 2018-Nov-08 03:07     22 23 12.958533 -86 00 31.95138
 2018-Nov-08 03:08     22 23 12.940663 -86 00 31.89626
 2018-Nov-08 03:09     22 23 12.922795 -86 00 31.84114
 2018-Nov-08 03:10     22 23 12.904931 -86 00 31.78601
 2018-Nov-08 03:11     22 23 12.887069 -86 00 31.73089
 2018-Nov-08 03:12     22 23 12.869212 -86 00 31.67576
 2018-Nov-08 03:13     22 23 12.851357 -86 00 31.62062
 2018-Nov-08 03:14     22 23 12.833505 -86 00 31.56549
 2018-Nov-08 03:15     22 23 12.815657 -86 00 31.51035
 2018-Nov-08 03:16     22 23 12.797812 -86 00 31.45521
 2018-Nov-08 03:17     22 23 12.779971 -86 00 31.40007
 2018-Nov-08 03:18     22 23 12.762132 -86 00 31.34493
 2018-Nov-08 03:19     22 23 12.744297 -86 00 31.28978
 2018-Nov-08 03:20     22 23 12.726466 -86 00 31.23463
 2018-Nov-08 03:21     22 23 12.708637 -86 00 31.17948
 2018-Nov-08 03:22     22 23 12.690812 -86 00 31.12433
 2018-Nov-08 03:23     22 23 12.672991 -86 00 31.06917
 2018-Nov-08 03:24     22 23 12.655172 -86 00 31.01401
 2018-Nov-08 03:25     22 23 12.637357 -86 00 30.95885
 2018-Nov-08 03:26     22 23 12.619546 -86 00 30.90368
